start=new Date('2023-03-24T00:00:00.000Z').valueOf();
sats=[{"TIME_SYSTEM":"UTC","PERIOD":"95.437","DECAY_DATE":null,"BSTAR":"0.00020960000000","OBJECT_NAME":"STARLINK-3962","CLASSIFICATION_TYPE":"U","MEAN_MOTION":"15.08845391","TLE_LINE1":"1 52708U 22053BE  23082.93749738  .00003050  00000-0  20960-3 0  9997","SEMIMAJOR_AXIS":"6917.864","REV_AT_EPOCH":"4821","CENTER_NAME":"EARTH","MEAN_MOTION_DOT":"0.00003050","EPHEMERIS_TYPE":"0","RCS_SIZE":"LARGE","LAUNCH_DATE":"2022-05-18","GP_ID":"228741268","PERIAPSIS":"538.783","ARG_OF_PERICENTER":"93.9443","ELEMENT_SET_NO":"999","INCLINATION":"53.2160","MEAN_MOTION_DDOT":"0.0000000000000","FILE":"3868816","APOAPSIS":"540.675","OBJECT_ID":"2022-053BE","SITE":"AFETR","RA_OF_ASC_NODE":"310.2849","NORAD_CAT_ID":"52708","MEAN_ELEMENT_THEORY":"SGP4","MEAN_ANOMALY":"266.1706","COUNTRY_CODE":"US","REF_FRAME":"TEME","EPOCH":"2023-03-23T22:29:59.773632","ECCENTRICITY":"0.00013680","TLE_LINE2":"2 52708  53.2160 310.2849 0001368  93.9443 266.1706 15.08845391 48215","OBJECT_TYPE":"PAYLOAD"},{"LAUNCH_DATE":"2022-06-17","PERIAPSIS":"538.750","GP_ID":"228740779","ELEMENT_SET_NO":"999","ARG_OF_PERICENTER":"56.9768","MEAN_MOTION_DDOT":"0.0000000000000","INCLINATION":"53.2166","SITE":"AFETR","FILE":"3868816","APOAPSIS":"540.711","OBJECT_ID":"2022-062A","NORAD_CAT_ID":"52830","RA_OF_ASC_NODE":"211.5078","MEAN_ELEMENT_THEORY":"SGP4","MEAN_ANOMALY":"303.1360","COUNTRY_CODE":"US","EPOCH":"2023-03-23T16:00:30.201408","REF_FRAME":"TEME","ECCENTRICITY":"0.00014170","OBJECT_TYPE":"PAYLOAD","TLE_LINE2":"2 52830  53.2166 211.5078 0001417  56.9768 303.1360 15.08844947 42430","TIME_SYSTEM":"UTC","PERIOD":"95.437","BSTAR":"0.00016718000000","OBJECT_NAME":"STARLINK-4091","DECAY_DATE":null,"CLASSIFICATION_TYPE":"U","MEAN_MOTION":"15.08844947","SEMIMAJOR_AXIS":"6917.865","TLE_LINE1":"1 52830U 22062A   23082.66701622  .00002374  00000-0  16718-3 0  9997","REV_AT_EPOCH":"4243","CENTER_NAME":"EARTH","MEAN_MOTION_DOT":"0.00002374","EPHEMERIS_TYPE":"0","RCS_SIZE":"LARGE"},{"MEAN_MOTION":"15.08850857","CLASSIFICATION_TYPE":"U","DECAY_DATE":null,"OBJECT_NAME":"STARLINK-4089","BSTAR":"0.00055328000000","PERIOD":"95.437","TIME_SYSTEM":"UTC","RCS_SIZE":"LARGE","EPHEMERIS_TYPE":"0","MEAN_MOTION_DOT":"0.00008531","CENTER_NAME":"EARTH","REV_AT_EPOCH":"4243","TLE_LINE1":"1 52831U 22062B   23082.67805056  .00008531  00000-0  55328-3 0  9996","SEMIMAJOR_AXIS":"6917.847","RA_OF_ASC_NODE":"211.4584","NORAD_CAT_ID":"52831","FILE":"3868816","APOAPSIS":"540.380","OBJECT_ID":"2022-062B","SITE":"AFETR","INCLINATION":"53.2168","MEAN_MOTION_DDOT":"0.0000000000000","ARG_OF_PERICENTER":"86.2853","ELEMENT_SET_NO":"999","GP_ID":"228740048","PERIAPSIS":"539.044","LAUNCH_DATE":"2022-06-17","TLE_LINE2":"2 52831  53.2168 211.4584 0000966  86.2853 273.8249 15.08850857 42439","OBJECT_TYPE":"PAYLOAD","ECCENTRICITY":"0.00009660","REF_FRAME":"TEME","EPOCH":"2023-03-23T16:16:23.568384","COUNTRY_CODE":"US","MEAN_ANOMALY":"273.8249","MEAN_ELEMENT_THEORY":"SGP4"},{"GP_ID":"228740298","PERIAPSIS":"538.896","ARG_OF_PERICENTER":"122.5632","ELEMENT_SET_NO":"999","LAUNCH_DATE":"2022-06-17","NORAD_CAT_ID":"52832","RA_OF_ASC_NODE":"211.4742","INCLINATION":"53.2159","MEAN_MOTION_DDOT":"0.0000000000000","FILE":"3868816","APOAPSIS":"540.505","OBJECT_ID":"2022-062C","SITE":"AFETR","REF_FRAME":"TEME","EPOCH":"2023-03-23T16:11:05.027136","MEAN_ELEMENT_THEORY":"SGP4","MEAN_ANOMALY":"237.5473","COUNTRY_CODE":"US","TLE_LINE2":"2 52832  53.2159 211.4742 0001163 122.5632 237.5473 15.08854801 42434","OBJECT_TYPE":"PAYLOAD","ECCENTRICITY":"0.00011630","DECAY_DATE":null,"OBJECT_NAME":"STARLINK-4083","BSTAR":"0.00004372000000","TIME_SYSTEM":"UTC","PERIOD":"95.437","MEAN_MOTION":"15.08854801","CLASSIFICATION_TYPE":"U","REV_AT_EPOCH":"4243","SEMIMAJOR_AXIS":"6917.835","TLE_LINE1":"1 52832U 22062C   23082.67436374  .00000408  00000-0  43720-4 0  9999","MEAN_MOTION_DOT":"0.00000408","EPHEMERIS_TYPE":"0","RCS_SIZE":"LARGE","CENTER_NAME":"EARTH"},{"NORAD_CAT_ID":"52833","RA_OF_ASC_NODE":"211.7896","FILE":"3868494","APOAPSIS":"540.547","OBJECT_ID":"2022-062D","SITE":"AFETR","INCLINATION":"53.2143","MEAN_MOTION_DDOT":"0.0000000000000","ARG_OF_PERICENTER":"114.6987","ELEMENT_SET_NO":"999","GP_ID":"228706472","PERIAPSIS":"538.972","LAUNCH_DATE":"2022-06-17","TLE_LINE2":"2 52833  53.2143 211.7896 0001138 114.6987 245.4124 15.08835465 42423","OBJECT_TYPE":"PAYLOAD","ECCENTRICITY":"0.00011380","REF_FRAME":"TEME","EPOCH":"2023-03-23T14:30:24.681312","COUNTRY_CODE":"US","MEAN_ELEMENT_THEORY":"SGP4","MEAN_ANOMALY":"245.4124","MEAN_MOTION":"15.08835465","CLASSIFICATION_TYPE":"U","DECAY_DATE":null,"BSTAR":"0.00016022000000","OBJECT_NAME":"STARLINK-4086","PERIOD":"95.438","TIME_SYSTEM":"UTC","RCS_SIZE":"LARGE","EPHEMERIS_TYPE":"0","MEAN_MOTION_DOT":"0.00002263","CENTER_NAME":"EARTH","REV_AT_EPOCH":"4242","SEMIMAJOR_AXIS":"6917.894","TLE_LINE1":"1 52833U 22062D   23082.60445233  .00002263  00000-0  16022-3 0  9992"},{"SEMIMAJOR_AXIS":"6917.878","TLE_LINE1":"1 52834U 22062E   23082.66333282  .00002208  00000-0  15674-3 0  9990","REV_AT_EPOCH":"4243","CENTER_NAME":"EARTH","RCS_SIZE":"LARGE","MEAN_MOTION_DOT":"0.00002208","EPHEMERIS_TYPE":"0","PERIOD":"95.437","TIME_SYSTEM":"UTC","DECAY_DATE":null,"OBJECT_NAME":"STARLINK-4108","BSTAR":"0.00015674000000","CLASSIFICATION_TYPE":"U","MEAN_MOTION":"15.08840881","COUNTRY_CODE":"US","MEAN_ANOMALY":"271.7418","MEAN_ELEMENT_THEORY":"SGP4","REF_FRAME":"TEME","EPOCH":"2023-03-23T15:55:11.955648","ECCENTRICITY":"0.00011990","TLE_LINE2":"2 52834  53.2174 211.5263 0001199  88.3712 271.7418 15.08840881 42431","OBJECT_TYPE":"PAYLOAD","LAUNCH_DATE":"2022-06-17","ARG_OF_PERICENTER":"88.3712","ELEMENT_SET_NO":"999","GP_ID":"228741279","PERIAPSIS":"538.913","APOAPSIS":"540.572","FILE":"3868816","OBJECT_ID":"2022-062E","SITE":"AFETR","INCLINATION":"53.2174","MEAN_MOTION_DDOT":"0.0000000000000","RA_OF_ASC_NODE":"211.5263","NORAD_CAT_ID":"52834"},{"SITE":"AFETR","OBJECT_ID":"2022-062F","FILE":"3868494","APOAPSIS":"540.763","MEAN_MOTION_DDOT":"0.0000000000000","INCLINATION":"53.2172","RA_OF_ASC_NODE":"211.8412","NORAD_CAT_ID":"52835","LAUNCH_DATE":"2022-06-17","ELEMENT_SET_NO":"999","ARG_OF_PERICENTER":"97.0981","PERIAPSIS":"538.745","GP_ID":"228706973","ECCENTRICITY":"0.00014590","OBJECT_TYPE":"PAYLOAD","TLE_LINE2":"2 52835  53.2172 211.8412 0001459  97.0981 263.0177 15.08837193 42420","COUNTRY_CODE":"US","MEAN_ELEMENT_THEORY":"SGP4","MEAN_ANOMALY":"263.0177","EPOCH":"2023-03-23T14:14:31.064640","REF_FRAME":"TEME","CLASSIFICATION_TYPE":"U","MEAN_MOTION":"15.08837193","PERIOD":"95.438","TIME_SYSTEM":"UTC","OBJECT_NAME":"STARLINK-4080","BSTAR":"0.00004016500000","DECAY_DATE":null,"CENTER_NAME":"EARTH","RCS_SIZE":"LARGE","MEAN_MOTION_DOT":"0.00000351","EPHEMERIS_TYPE":"0","TLE_LINE1":"1 52835U 22062F   23082.59341510  .00000351  00000-0  40165-4 0  9997","SEMIMAJOR_AXIS":"6917.889","REV_AT_EPOCH":"4242"},{"MEAN_MOTION":"15.08854589","CLASSIFICATION_TYPE":"U","DECAY_DATE":null,"BSTAR":"0.00160900000000","OBJECT_NAME":"STARLINK-4043","TIME_SYSTEM":"UTC","PERIOD":"95.437","EPHEMERIS_TYPE":"0","MEAN_MOTION_DOT":"0.00025422","RCS_SIZE":"LARGE","CENTER_NAME":"EARTH","REV_AT_EPOCH":"4243","TLE_LINE1":"1 52836U 22062G   23082.65597491  .00025422  00000-0  16090-2 0  9990","SEMIMAJOR_AXIS":"6917.836","RA_OF_ASC_NODE":"211.5579","NORAD_CAT_ID":"52836","INCLINATION":"53.2162","MEAN_MOTION_DDOT":"0.0000000000000","APOAPSIS":"540.647","FILE":"3868816","OBJECT_ID":"2022-062G","SITE":"AFETR","GP_ID":"228739799","PERIAPSIS":"538.754","ARG_OF_PERICENTER":"96.5564","ELEMENT_SET_NO":"999","LAUNCH_DATE":"2022-06-17","TLE_LINE2":"2 52836  53.2162 211.5579 0001368  96.5564 263.5584 15.08854589 42437","OBJECT_TYPE":"PAYLOAD","ECCENTRICITY":"0.00013680","REF_FRAME":"TEME","EPOCH":"2023-03-23T15:44:36.232224","MEAN_ANOMALY":"263.5584","MEAN_ELEMENT_THEORY":"SGP4","COUNTRY_CODE":"US"},{"SEMIMAJOR_AXIS":"6917.875","TLE_LINE1":"1 52837U 22062H   23082.58237376  .00008340  00000-0  54144-3 0  9999","REV_AT_EPOCH":"4242","CENTER_NAME":"EARTH","EPHEMERIS_TYPE":"0","MEAN_MOTION_DOT":"0.00008340","RCS_SIZE":"LARGE","TIME_SYSTEM":"UTC","PERIOD":"95.437","DECAY_DATE":null,"OBJECT_NAME":"STARLINK-4036","BSTAR":"0.00054144000000","CLASSIFICATION_TYPE":"U","MEAN_MOTION":"15.08841903","MEAN_ELEMENT_THEORY":"SGP4","MEAN_ANOMALY":"271.2222","COUNTRY_CODE":"US","REF_FRAME":"TEME","EPOCH":"2023-03-23T13:58:37.092864","ECCENTRICITY":"0.00014040","TLE_LINE2":"2 52837  53.2155 211.8857 0001404  88.8931 271.2222 15.08841903 42425","OBJECT_TYPE":"PAYLOAD","LAUNCH_DATE":"2022-06-17","GP_ID":"228705973","PERIAPSIS":"538.768","ARG_OF_PERICENTER":"88.8931","ELEMENT_SET_NO":"999","INCLINATION":"53.2155","MEAN_MOTION_DDOT":"0.0000000000000","APOAPSIS":"540.711","FILE":"3868494","OBJECT_ID":"2022-062H","SITE":"AFETR","RA_OF_ASC_NODE":"211.8857","NORAD_CAT_ID":"52837"},{"COUNTRY_CODE":"US","MEAN_ANOMALY":"273.2239","MEAN_ELEMENT_THEORY":"SGP4","EPOCH":"2023-03-23T14:03:54.998208","REF_FRAME":"TEME","ECCENTRICITY":"0.00011580","OBJECT_TYPE":"PAYLOAD","TLE_LINE2":"2 52838  53.2164 211.8585 0001158  86.8886 273.2239 15.08848010 42423","LAUNCH_DATE":"2022-06-17","ELEMENT_SET_NO":"999","ARG_OF_PERICENTER":"86.8886","PERIAPSIS":"538.920","GP_ID":"228706223","SITE":"AFETR","FILE":"3868494","APOAPSIS":"540.522","OBJECT_ID":"2022-062J","MEAN_MOTION_DDOT":"0.0000000000000","INCLINATION":"53.2164","RA_OF_ASC_NODE":"211.8585","NORAD_CAT_ID":"52838","SEMIMAJOR_AXIS":"6917.856","TLE_LINE1":"1 52838U 22062J   23082.58605322  .00030754  00000-0  19416-2 0  9996","REV_AT_EPOCH":"4242","CENTER_NAME":"EARTH","RCS_SIZE":"LARGE","MEAN_MOTION_DOT":"0.00030754","EPHEMERIS_TYPE":"0","PERIOD":"95.437","TIME_SYSTEM":"UTC","BSTAR":"0.00194160000000","OBJECT_NAME":"STARLINK-4092","DECAY_DATE":null,"CLASSIFICATION_TYPE":"U","MEAN_MOTION":"15.08848010"}];
